IRIDIUM 33              
1 24946U 97051C   26117.18472961  .00000278  00000+0  90609-4 0  9996
2 24946  86.3916  11.3623 0009492 123.6159 236.5945 14.35127585497776
IRIDIUM 33 DEB          
1 33773U 97051L   26117.17376266  .00000850  00000+0  24484-3 0  9997
2 33773  86.4050   3.1941 0013298  68.6798 291.5821 14.43575124903010
IRIDIUM 33 DEB          
1 33775U 97051N   26117.14357176  .00001248  00000+0  37482-3 0  9999
2 33775  86.3660 351.7459 0015089  76.4159  83.6531 14.41894959900914
IRIDIUM 33 DEB          
1 33776U 97051P   26117.26387361  .00000705  00000+0  22429-3 0  9994
2 33776  86.4082  23.8338 0016460 109.1022   7.4716 14.38481418900304
IRIDIUM 33 DEB          
1 33777U 97051Q   26117.07152237  .00002587  00000+0  57648-3 0  9997
2 33777  86.3792 336.3076 0007818 146.5778 213.5925 14.56557014905036
IRIDIUM 33 DEB          
1 33850U 97051T   26117.07297678  .00000746  00000+0  21857-3 0  9996
2 33850  86.3413 331.9949 0013514  84.3434  34.5291 14.42581560901037
IRIDIUM 33 DEB          
1 33853U 97051W   26117.22548132  .00001998  00000+0  11220-2 0  9992
2 33853  85.9955 290.3712 0208168 180.2561 357.0232 13.99746515872400
IRIDIUM 33 DEB          
1 33860U 97051AD  26116.56933590  .00006145  00000+0  10290-2 0  9997
2 33860  86.3823 327.4584 0006562 228.3234 195.3304 14.69656843907012
IRIDIUM 33 DEB          
1 33862U 97051AF  26117.14680661  .00008880  00000+0  13592-2 0  9998
2 33862  86.4103 337.6733 0047851 321.8027 156.1021 14.72836659908145
IRIDIUM 33 DEB          
1 33866U 97051AK  26117.25958543  .00004570  00000+0  17762-2 0  9996
2 33866  86.3028  35.6504 0116021  85.0704  67.6482 14.26022559887410
IRIDIUM 33 DEB          
1 33870U 97051AP  26116.74509007  .00002055  00000+0  56241-3 0  9993
2 33870  86.3783   0.3677 0022872  92.8519 335.2485 14.46624740900889
IRIDIUM 33 DEB          
1 33881U 97051BA  26117.07201567  .00018547  00000+0  37097-2 0  9992
2 33881  86.3838  47.7099 0060981  73.4882 297.8149 14.60558503894731
IRIDIUM 33 DEB          
1 33884U 97051BD  26117.27973602  .00017295  00000+0  21912-2 0  9991
2 33884  86.3653 308.4375 0010552 189.2658 343.9599 14.81638799908512
IRIDIUM 33 DEB          
1 33886U 97051BF  26117.19706060  .00000457  00000+0  14987-3 0  9993
2 33886  86.3875  10.2067 0014603 155.0834 317.4707 14.36219932899963
IRIDIUM 33 DEB          
1 33887U 97051BG  26117.03417159  .00000389  00000+0  12361-3 0  9993
2 33887  86.3002 305.1066 0007302 142.4220 348.0128 14.37359958901086
IRIDIUM 33 DEB          
1 33953U 97051BN  26117.10061286  .00003665  00000+0  81247-3 0  9990
2 33953  86.3883 354.9751 0017465  11.4798 120.0383 14.56817341902736
