[{"OBJECT_NAME":"IRIDIUM 33","OBJECT_ID":"1997-051C","EPOCH":"2026-04-27T04:26:00.638304","MEAN_MOTION":14.35127585,"ECCENTRICITY":0.00094927,"INCLINATION":86.3916,"RA_OF_ASC_NODE":11.3623,"ARG_OF_PERICENTER":123.6159,"MEAN_ANOMALY":236.5945,"EPHEMERIS_TYPE":0,"CLASSIFICATION_TYPE":"U","NORAD_CAT_ID":24946,"ELEMENT_SET_NO":999,"REV_AT_EPOCH":49777,"BSTAR":9.0609434e-5,"MEAN_MOTION_DOT":2.78e-6,"MEAN_MOTION_DDOT":0},{"OBJECT_NAME":"IRIDIUM 33 DEB","OBJECT_ID":"1997-051L","EPOCH":"2026-04-27T04:10:13.093824","MEAN_MOTION":14.43575124,"ECCENTRICITY":0.00132986,"INCLINATION":86.405,"RA_OF_ASC_NODE":3.1941,"ARG_OF_PERICENTER":68.6798,"MEAN_ANOMALY":291.5821,"EPHEMERIS_TYPE":0,"CLASSIFICATION_TYPE":"U","NORAD_CAT_ID":33773,"ELEMENT_SET_NO":999,"REV_AT_EPOCH":90301,"BSTAR":0.00024484469,"MEAN_MOTION_DOT":8.5e-6,"MEAN_MOTION_DDOT":0},{"OBJECT_NAME":"IRIDIUM 33 DEB","OBJECT_ID":"1997-051N","EPOCH":"2026-04-27T03:26:44.600064","MEAN_MOTION":14.41894959,"ECCENTRICITY":0.00150895,"INCLINATION":86.366,"RA_OF_ASC_NODE":351.7459,"ARG_OF_PERICENTER":76.4159,"MEAN_ANOMALY":83.6531,"EPHEMERIS_TYPE":0,"CLASSIFICATION_TYPE":"U","NORAD_CAT_ID":33775,"ELEMENT_SET_NO":999,"REV_AT_EPOCH":90091,"BSTAR":0.00037482487,"MEAN_MOTION_DOT":1.248e-5,"MEAN_MOTION_DDOT":0},{"OBJECT_NAME":"IRIDIUM 33 DEB","OBJECT_ID":"1997-051P","EPOCH":"2026-04-27T06:19:58.679904","MEAN_MOTION":14.38481418,"ECCENTRICITY":0.00164609,"INCLINATION":86.4082,"RA_OF_ASC_NODE":23.8338,"ARG_OF_PERICENTER":109.1022,"MEAN_ANOMALY":7.4716,"EPHEMERIS_TYPE":0,"CLASSIFICATION_TYPE":"U","NORAD_CAT_ID":33776,"ELEMENT_SET_NO":999,"REV_AT_EPOCH":90030,"BSTAR":0.00022428835,"MEAN_MOTION_DOT":7.05e-6,"MEAN_MOTION_DDOT":0},{"OBJECT_NAME":"IRIDIUM 33 DEB","OBJECT_ID":"1997-051Q","EPOCH":"2026-04-27T01:42:59.532768","MEAN_MOTION":14.56557014,"ECCENTRICITY":0.00078187,"INCLINATION":86.3792,"RA_OF_ASC_NODE":336.3076,"ARG_OF_PERICENTER":146.5778,"MEAN_ANOMALY":213.5925,"EPHEMERIS_TYPE":0,"CLASSIFICATION_TYPE":"U","NORAD_CAT_ID":33777,"ELEMENT_SET_NO":999,"REV_AT_EPOCH":90503,"BSTAR":0.00057647742,"MEAN_MOTION_DOT":2.587e-5,"MEAN_MOTION_DDOT":0},{"OBJECT_NAME":"IRIDIUM 33 DEB","OBJECT_ID":"1997-051T","EPOCH":"2026-04-27T01:45:05.193792","MEAN_MOTION":14.4258156,"ECCENTRICITY":0.00135143,"INCLINATION":86.3413,"RA_OF_ASC_NODE":331.9949,"ARG_OF_PERICENTER":84.3434,"MEAN_ANOMALY":34.5291,"EPHEMERIS_TYPE":0,"CLASSIFICATION_TYPE":"U","NORAD_CAT_ID":33850,"ELEMENT_SET_NO":999,"REV_AT_EPOCH":90103,"BSTAR":0.00021856954,"MEAN_MOTION_DOT":7.46e-6,"MEAN_MOTION_DDOT":0},{"OBJECT_NAME":"IRIDIUM 33 DEB","OBJECT_ID":"1997-051W","EPOCH":"2026-04-27T05:24:41.586048","MEAN_MOTION":13.99746515,"ECCENTRICITY":0.02081683,"INCLINATION":85.9955,"RA_OF_ASC_NODE":290.3712,"ARG_OF_PERICENTER":180.2561,"MEAN_ANOMALY":357.0232,"EPHEMERIS_TYPE":0,"CLASSIFICATION_TYPE":"U","NORAD_CAT_ID":33853,"ELEMENT_SET_NO":999,"REV_AT_EPOCH":87240,"BSTAR":0.00112203,"MEAN_MOTION_DOT":1.998e-5,"MEAN_MOTION_DDOT":0},{"OBJECT_NAME":"IRIDIUM 33 DEB","OBJECT_ID":"1997-051AD","EPOCH":"2026-04-26T13:39:50.621760","MEAN_MOTION":14.69656843,"ECCENTRICITY":0.0006562,"INCLINATION":86.3823,"RA_OF_ASC_NODE":327.4584,"ARG_OF_PERICENTER":228.3234,"MEAN_ANOMALY":195.3304,"EPHEMERIS_TYPE":0,"CLASSIFICATION_TYPE":"U","NORAD_CAT_ID":33860,"ELEMENT_SET_NO":999,"REV_AT_EPOCH":90701,"BSTAR":0.0010289738,"MEAN_MOTION_DOT":6.145e-5,"MEAN_MOTION_DDOT":0},{"OBJECT_NAME":"IRIDIUM 33 DEB","OBJECT_ID":"1997-051AF","EPOCH":"2026-04-27T03:31:24.091104","MEAN_MOTION":14.72836659,"ECCENTRICITY":0.00478516,"INCLINATION":86.4103,"RA_OF_ASC_NODE":337.6733,"ARG_OF_PERICENTER":321.8027,"MEAN_ANOMALY":156.1021,"EPHEMERIS_TYPE":0,"CLASSIFICATION_TYPE":"U","NORAD_CAT_ID":33862,"ELEMENT_SET_NO":999,"REV_AT_EPOCH":90814,"BSTAR":0.0013591527,"MEAN_MOTION_DOT":8.88e-5,"MEAN_MOTION_DDOT":0},{"OBJECT_NAME":"IRIDIUM 33 DEB","OBJECT_ID":"1997-051AK","EPOCH":"2026-04-27T06:13:48.181152","MEAN_MOTION":14.26022559,"ECCENTRICITY":0.0116021,"INCLINATION":86.3028,"RA_OF_ASC_NODE":35.6504,"ARG_OF_PERICENTER":85.0704,"MEAN_ANOMALY":67.6482,"EPHEMERIS_TYPE":0,"CLASSIFICATION_TYPE":"U","NORAD_CAT_ID":33866,"ELEMENT_SET_NO":999,"REV_AT_EPOCH":88741,"BSTAR":0.0017761846,"MEAN_MOTION_DOT":4.57e-5,"MEAN_MOTION_DDOT":0},{"OBJECT_NAME":"IRIDIUM 33 DEB","OBJECT_ID":"1997-051AP","EPOCH":"2026-04-26T17:52:55.782048","MEAN_MOTION":14.4662474,"ECCENTRICITY":0.00228721,"INCLINATION":86.3783,"RA_OF_ASC_NODE":0.3677,"ARG_OF_PERICENTER":92.8519,"MEAN_ANOMALY":335.2485,"EPHEMERIS_TYPE":0,"CLASSIFICATION_TYPE":"U","NORAD_CAT_ID":33870,"ELEMENT_SET_NO":999,"REV_AT_EPOCH":90088,"BSTAR":0.00056241144,"MEAN_MOTION_DOT":2.055e-5,"MEAN_MOTION_DDOT":0},{"OBJECT_NAME":"IRIDIUM 33 DEB","OBJECT_ID":"1997-051BA","EPOCH":"2026-04-27T01:43:42.153888","MEAN_MOTION":14.60558503,"ECCENTRICITY":0.00609819,"INCLINATION":86.3838,"RA_OF_ASC_NODE":47.7099,"ARG_OF_PERICENTER":73.4882,"MEAN_ANOMALY":297.8149,"EPHEMERIS_TYPE":0,"CLASSIFICATION_TYPE":"U","NORAD_CAT_ID":33881,"ELEMENT_SET_NO":999,"REV_AT_EPOCH":89473,"BSTAR":0.00370965,"MEAN_MOTION_DOT":0.00018547,"MEAN_MOTION_DDOT":0},{"OBJECT_NAME":"IRIDIUM 33 DEB","OBJECT_ID":"1997-051BD","EPOCH":"2026-04-27T06:42:49.192128","MEAN_MOTION":14.81638799,"ECCENTRICITY":0.0010552,"INCLINATION":86.3653,"RA_OF_ASC_NODE":308.4375,"ARG_OF_PERICENTER":189.2658,"MEAN_ANOMALY":343.9599,"EPHEMERIS_TYPE":0,"CLASSIFICATION_TYPE":"U","NORAD_CAT_ID":33884,"ELEMENT_SET_NO":999,"REV_AT_EPOCH":90851,"BSTAR":0.0021912026,"MEAN_MOTION_DOT":0.00017295,"MEAN_MOTION_DDOT":0},{"OBJECT_NAME":"IRIDIUM 33 DEB","OBJECT_ID":"1997-051BF","EPOCH":"2026-04-27T04:43:46.035840","MEAN_MOTION":14.36219932,"ECCENTRICITY":0.00146039,"INCLINATION":86.3875,"RA_OF_ASC_NODE":10.2067,"ARG_OF_PERICENTER":155.0834,"MEAN_ANOMALY":317.4707,"EPHEMERIS_TYPE":0,"CLASSIFICATION_TYPE":"U","NORAD_CAT_ID":33886,"ELEMENT_SET_NO":999,"REV_AT_EPOCH":89996,"BSTAR":0.0001498668,"MEAN_MOTION_DOT":4.57e-6,"MEAN_MOTION_DDOT":0},{"OBJECT_NAME":"IRIDIUM 33 DEB","OBJECT_ID":"1997-051BG","EPOCH":"2026-04-27T00:49:12.425376","MEAN_MOTION":14.37359958,"ECCENTRICITY":0.00073023,"INCLINATION":86.3002,"RA_OF_ASC_NODE":305.1066,"ARG_OF_PERICENTER":142.422,"MEAN_ANOMALY":348.0128,"EPHEMERIS_TYPE":0,"CLASSIFICATION_TYPE":"U","NORAD_CAT_ID":33887,"ELEMENT_SET_NO":999,"REV_AT_EPOCH":90108,"BSTAR":0.00012360747,"MEAN_MOTION_DOT":3.89e-6,"MEAN_MOTION_DDOT":0},{"OBJECT_NAME":"IRIDIUM 33 DEB","OBJECT_ID":"1997-051BN","EPOCH":"2026-04-27T02:24:52.951104","MEAN_MOTION":14.56817341,"ECCENTRICITY":0.00174657,"INCLINATION":86.3883,"RA_OF_ASC_NODE":354.9751,"ARG_OF_PERICENTER":11.4798,"MEAN_ANOMALY":120.0383,"EPHEMERIS_TYPE":0,"CLASSIFICATION_TYPE":"U","NORAD_CAT_ID":33953,"ELEMENT_SET_NO":999,"REV_AT_EPOCH":90273,"BSTAR":0.00081246751,"MEAN_MOTION_DOT":3.665e-5,"MEAN_MOTION_DDOT":0}]
